[{"OBJECT_NAME":"DONGPO 10","OBJECT_ID":"2022-167H","EPOCH":"2026-03-09T22:44:56.137344","MEAN_MOTION":15.322785,"ECCENTRICITY":0.00061655,"INCLINATION":97.685,"RA_OF_ASC_NODE":235.0962,"ARG_OF_PERICENTER":106.9526,"MEAN_ANOMALY":253.2392,"EPHEMERIS_TYPE":0,"CLASSIFICATION_TYPE":"U","NORAD_CAT_ID":54689,"ELEMENT_SET_NO":999,"REV_AT_EPOCH":18015,"BSTAR":0.00049390523,"MEAN_MOTION_DOT":0.00015333,"MEAN_MOTION_DDOT":0},{"OBJECT_NAME":"STARLINK-34865","OBJECT_ID":"2025-176C","EPOCH":"2026-03-09T13:11:46.016160","MEAN_MOTION":15.30203241,"ECCENTRICITY":0.00012083,"INCLINATION":53.1603,"RA_OF_ASC_NODE":153.7682,"ARG_OF_PERICENTER":77.3357,"MEAN_ANOMALY":282.7779,"EPHEMERIS_TYPE":0,"CLASSIFICATION_TYPE":"U","NORAD_CAT_ID":65200,"ELEMENT_SET_NO":999,"REV_AT_EPOCH":3309,"BSTAR":0.00095637322,"MEAN_MOTION_DOT":0.00028076,"MEAN_MOTION_DDOT":0}]
